{"fetched_at":"2026-03-29T16:36:15Z","count":15609,"tles":[{"name":"STARLINK-5924","line1":"1 55963U 23037BB  26087.77983410  .00001114  00000+0  10111-3 0  9998","line2":"2 55963  70.0006 216.2833 0003454 267.9955  92.0809 14.98334874167336","category":"Starlink"}]}