{
  "norad_id": 55963,
  "name": "STARLINK-5924",
  "history": [
    {
      "epoch": "2026-03-28T18:42:57.666240",
      "apogee_km": 574.4416879679702,
      "perigee_km": 569.6399491166958,
      "latitude_deg": -49.55325012549464,
      "longitude_deg": -148.8359264000319,
      "semi_major_axis_km": 6950.177818542333,
      "eccentricity": 0.00034544,
      "inclination_deg": 70.0006,
      "raan_deg": 216.2833,
      "arg_perigee_deg": 267.9955,
      "mean_anomaly_deg": 92.0809,
      "mean_motion_rev_day": 14.98334874
    }
  ]
}